{
    "links": {
        "self": "http://www.neowsapp.com/rest/v1/neo/3717044?api_key=iIulBulltgU6a56xZRHN4H3l9WmuAYTsLGpBGhQ2"
    },
    "id": "3717044",
    "neo_reference_id": "3717044",
    "name": "(2015 HK10)",
    "designation": "2015 HK10",
    "nasa_jpl_url": "http://ssd.jpl.nasa.gov/sbdb.cgi?sstr=3717044",
    "absolute_magnitude_h": 26.1,
    "estimated_diameter": {
        "kilometers": {
            "estimated_diameter_min": 0.0160160338,
            "estimated_diameter_max": 0.0358129403
        },
        "meters": {
            "estimated_diameter_min": 16.0160337979,
            "estimated_diameter_max": 35.8129403019
        },
        "miles": {
            "estimated_diameter_min": 0.0099518989,
            "estimated_diameter_max": 0.0222531225
        },
        "feet": {
            "estimated_diameter_min": 52.5460443254,
            "estimated_diameter_max": 117.4965270602
        }
    },
    "is_potentially_hazardous_asteroid": false,
    "close_approach_data": [
        {
            "close_approach_date": "2015-06-10",
            "close_approach_date_full": "2015-Jun-10 19:27",
            "epoch_date_close_approach": 1433964420000,
            "relative_velocity": {
                "kilometers_per_second": "5.1821417092",
                "kilometers_per_hour": "18655.7101532621",
                "miles_per_hour": "11591.9327893977"
            },
            "miss_distance": {
                "astronomical": "0.0870825212",
                "lunar": "33.8751007468",
                "kilometers": "13027359.685749844",
                "miles": "8094825.9466580872"
            },
            "orbiting_body": "Earth"
        },
        {
            "close_approach_date": "2015-11-26",
            "close_approach_date_full": "2015-Nov-26 07:56",
            "epoch_date_close_approach": 1448524560000,
            "relative_velocity": {
                "kilometers_per_second": "6.0312879957",
                "kilometers_per_hour": "21712.6367846664",
                "miles_per_hour": "13491.3881176723"
            },
            "miss_distance": {
                "astronomical": "0.3380613675",
                "lunar": "131.5058719575",
                "kilometers": "50573260.507287225",
                "miles": "31424766.893424705"
            },
            "orbiting_body": "Earth"
        },
        {
            "close_approach_date": "2155-06-02",
            "close_approach_date_full": "2155-Jun-02 02:47",
            "epoch_date_close_approach": 5851190820000,
            "relative_velocity": {
                "kilometers_per_second": "5.6348050215",
                "kilometers_per_hour": "20285.2980774169",
                "miles_per_hour": "12604.4953526038"
            },
            "miss_distance": {
                "astronomical": "0.0610819286",
                "lunar": "23.7608702254",
                "kilometers": "9137726.414052082",
                "miles": "5677919.9050474516"
            },
            "orbiting_body": "Earth"
        },
        {
            "close_approach_date": "2155-12-02",
            "close_approach_date_full": "2155-Dec-02 07:42",
            "epoch_date_close_approach": 5867019720000,
            "relative_velocity": {
                "kilometers_per_second": "6.4004128102",
                "kilometers_per_hour": "23041.4861165912",
                "miles_per_hour": "14317.0834150564"
            },
            "miss_distance": {
                "astronomical": "0.3550124411",
                "lunar": "138.0998395879",
                "kilometers": "53109105.012060457",
                "miles": "33000467.6024780266"
            },
            "orbiting_body": "Earth"
        }
    ],
    "orbital_data": {
        "orbit_id": "3",
        "orbit_determination_date": "2017-04-06 08:34:11",
        "first_observation_date": "2015-04-18",
        "last_observation_date": "2015-04-22",
        "data_arc_in_days": 4,
        "observations_used": 13,
        "orbit_uncertainty": "9",
        "minimum_orbit_intersection": ".0099952",
        "jupiter_tisserand_invariant": "5.301",
        "epoch_osculation": "2457133.5",
        "eccentricity": ".2516783444478966",
        "semi_major_axis": "1.188794358238531",
        "inclination": "2.616218209280594",
        "ascending_node_longitude": "25.55808534124684",
        "orbital_period": "473.433003650713",
        "perihelion_distance": ".8896005622680576",
        "perihelion_argument": "283.5342895427494",
        "aphelion_distance": "1.487988154209004",
        "perihelion_time": "2457227.395339146778",
        "mean_anomaly": "288.6016778885602",
        "mean_motion": ".7604032613357875",
        "equinox": "J2000",
        "orbit_class": {
            "orbit_class_type": "APO",
            "orbit_class_description": "Near-Earth asteroid orbits which cross the Earth’s orbit similar to that of 1862 Apollo",
            "orbit_class_range": "a (semi-major axis) > 1.0 AU; q (perihelion) < 1.017 AU"
        }
    },
    "is_sentry_object": false
}